NORAD_CAT_ID,OBJECT_NAME,OBJECT_TYPE,EPOCH,MEAN_MOTION,ECCENTRICITY,INCLINATION,RA_OF_ASC_NODE,ARG_OF_PERICENTER,MEAN_ANOMALY,BSTAR,MEAN_MOTION_DOT,MEAN_MOTION_DDOT,TLE_LINE0,TLE_LINE1,TLE_LINE2,SEMIMAJOR_AXIS,PERIOD,APOGEE,PERIGEE,DECAYED
51807.0,STARLINK-3606,PAYLOAD,2023-12-01 15:28:25,15.08847111,0.0001541,53.2186,100.8504,104.2323,255.8841,0.00011566,1.554e-05,0.0,0 STARLINK-3606,1 51807U 22017AR  23335.64473962  .00001554  00000-0  11566-3 0  9997,2 51807  53.2186 100.8504 0001541 104.2323 255.8841 15.08847111 98952,6917.859,95.437,540.79,538.658,0.0
51807.0,STARLINK-3606,PAYLOAD,2023-12-02 12:08:26,15.08840586,0.0001274,53.2166,96.973,93.887,266.2268,2.4169e-05,9.7e-07,0.0,0 STARLINK-3606,1 51807U 22017AR  23336.50586583  .00000097  00000-0  24169-4 0  9992,2 51807  53.2166  96.9730 0001274  93.8870 266.2268 15.08840586 99082,6917.879,95.438,540.625,538.862,0.0
51807.0,STARLINK-3606,PAYLOAD,2023-12-02 13:43:51,15.08813187,0.0001423,53.2186,96.6874,93.5042,266.6113,-0.00013329,-2.407e-05,0.0,0 STARLINK-3606,1 51807U 22017AR  23336.57212635 -.00002407  00000-0 -13329-3 0  9997,2 51807  53.2186  96.6874 0001423  93.5042 266.6113 15.08813187 99095,6917.962,95.439,540.812,538.843,0.0
51807.0,STARLINK-3606,PAYLOAD,2023-12-02 15:19:15,15.08806716,0.0001459,53.2186,96.3922,94.3828,265.7331,-0.00017374,-3.049e-05,0.0,0 STARLINK-3606,1 51807U 22017AR  23336.63837259 -.00003049  00000-0 -17374-3 0  9996,2 51807  53.2186  96.3922 0001459  94.3828 265.7331 15.08806716 99100,6917.982,95.44,540.856,538.838,0.0
51807.0,STARLINK-3606,PAYLOAD,2023-12-03 11:59:16,15.08823819,0.0001288,53.2188,92.5218,96.3641,263.7498,-0.00013461,-2.429e-05,0.0,0 STARLINK-3606,1 51807U 22017AR  23337.49949358 -.00002429  00000-0 -13461-3 0  9999,2 51807  53.2188  92.5218 0001288  96.3641 263.7498 15.08823819 99232,6917.93,95.439,540.686,538.904,0.0
51807.0,STARLINK-3606,PAYLOAD,2023-12-03 13:34:39,15.08826421,0.0001644,53.2184,92.2239,102.0974,258.0203,-0.00010996,-2.037e-05,0.0,0 STARLINK-3606,1 51807U 22017AR  23337.56573225 -.00002037  00000-0 -10996-3 0  9998,2 51807  53.2184  92.2239 0001644 102.0974 258.0203 15.08826421 99242,6917.922,95.438,540.924,538.65,0.0
51807.0,STARLINK-3606,PAYLOAD,2023-12-03 15:10:02,15.08828561,0.0001504,53.2181,91.9249,87.9925,272.1239,-9.7413e-05,-1.837e-05,0.0,0 STARLINK-3606,1 51807U 22017AR  23337.63197133 -.00001837  00000-0 -97413-4 0  9993,2 51807  53.2181  91.9249 0001504  87.9925 272.1239 15.08828561 99252,6917.915,95.438,540.821,538.74,0.0
51807.0,STARLINK-3606,PAYLOAD,2023-12-04 11:50:02,15.08822223,0.0001399,53.2177,88.064,81.9139,278.2012,0.0002679,3.976e-05,0.0,0 STARLINK-3606,1 51807U 22017AR  23338.49308958  .00003976  00000-0  26790-3 0  9990,2 51807  53.2177  88.0640 0001399  81.9139 278.2012 15.08822223 99381,6917.935,95.439,540.768,538.832,0.0
51807.0,STARLINK-3606,PAYLOAD,2023-12-04 13:25:26,15.08818601,0.0001773,53.2179,87.7692,61.3561,298.7609,0.00029743,4.446e-05,0.0,0 STARLINK-3606,1 51807U 22017AR  23338.55933418  .00004446  00000-0  29743-3 0  9996,2 51807  53.2179  87.7692 0001773  61.3561 298.7609 15.08818601 99398,6917.946,95.439,541.037,538.584,0.0
51807.0,STARLINK-3606,PAYLOAD,2023-12-04 16:36:12,15.08825124,0.0001718,53.218,87.1735,66.029,294.0882,0.00032502,4.886e-05,0.0,0 STARLINK-3606,1 51807U 22017AR  23338.69181074  .00004886  00000-0  32502-3 0  9999,2 51807  53.2180  87.1735 0001718  66.0290 294.0882 15.08825124 99415,6917.926,95.438,540.979,538.602,0.0
51807.0,STARLINK-3606,PAYLOAD,2023-12-05 11:40:48,15.08853438,0.0001433,53.2168,83.6021,75.9065,284.2086,0.00027931,4.162e-05,0.0,0 STARLINK-3606,1 51807U 22017AR  23339.48667486  .00004162  00000-0  27931-3 0  9990,2 51807  53.2168  83.6021 0001433  75.9065 284.2086 15.08853438 99532,6917.839,95.437,540.696,538.713,0.0
51807.0,STARLINK-3606,PAYLOAD,2023-12-05 13:16:11,15.08856036,0.0001499,53.2168,83.3047,75.6771,284.4387,0.00030582,4.585e-05,0.0,0 STARLINK-3606,1 51807U 22017AR  23339.55291297  .00004585  00000-0  30582-3 0  9996,2 51807  53.2168  83.3047 0001499  75.6771 284.4387 15.08856036 99544,6917.831,95.437,540.733,538.659,0.0
51807.0,STARLINK-3606,PAYLOAD,2023-12-06 11:31:36,15.08850588,0.0001548,53.2172,79.1404,82.1682,277.9486,1.9077e-05,1.6e-07,0.0,0 STARLINK-3606,1 51807U 22017AR  23340.48027899  .00000016  00000-0  19077-4 0  9997,2 51807  53.2172  79.1404 0001548  82.1682 277.9486 15.08850588 99686,6917.848,95.437,540.784,538.642,0.0
51807.0,STARLINK-3606,PAYLOAD,2023-12-06 13:06:59,15.08850405,0.0001466,53.2176,78.8433,76.6235,283.492,1.1851e-05,-9.9e-07,0.0,0 STARLINK-3606,1 51807U 22017AR  23340.54651870 -.00000099  00000-0  11851-4 0  9990,2 51807  53.2176  78.8433 0001466  76.6235 283.4920 15.08850405 99693,6917.849,95.437,540.728,538.699,0.0
51807.0,STARLINK-3606,PAYLOAD,2023-12-07 11:22:23,15.0884831,0.0001367,53.2169,74.6802,84.8077,275.3071,-0.00014171,-2.543e-05,0.0,0 STARLINK-3606,1 51807U 22017AR  23341.47387852 -.00002543  00000-0 -14171-3 0  9993,2 51807  53.2169  74.6802 0001367  84.8077 275.3071 15.08848310 99839,6917.855,95.437,540.666,538.774,0.0
51807.0,STARLINK-3606,PAYLOAD,2023-12-07 12:57:46,15.08848505,0.0001388,53.2169,74.3829,84.3866,275.7284,-0.00013197,-2.388e-05,0.0,0 STARLINK-3606,1 51807U 22017AR  23341.54011775 -.00002388  00000-0 -13197-3 0  9993,2 51807  53.2169  74.3829 0001388  84.3866 275.7284 15.08848505 99846,6917.854,95.437,540.68,538.759,0.0
51807.0,STARLINK-3606,PAYLOAD,2023-12-08 11:13:09,15.08838279,0.0001314,53.2169,70.2207,87.4421,272.6722,5.7152e-05,6.22e-06,0.0,0 STARLINK-3606,1 51807U 22017AR  23342.46747607  .00000622  00000-0  57152-4 0  9992,2 51807  53.2169  70.2207 0001314  87.4421 272.6722 15.08838279 99986,6917.886,95.438,540.66,538.842,0.0
51807.0,STARLINK-3606,PAYLOAD,2023-12-09 11:03:57,15.08836941,0.0001258,53.2172,65.7598,87.8621,272.2515,4.3624e-05,4.06e-06,0.0,0 STARLINK-3606,1 51807U 22017AR  23343.46107928  .00000406  00000-0  43624-4 0  9998,2 51807  53.2172  65.7598 0001258  87.8621 272.2515 15.08836941100135,6917.89,95.438,540.625,538.884,0.0
51807.0,STARLINK-3606,PAYLOAD,2023-12-10 12:30:07,15.08837405,0.0001318,53.2178,61.0026,93.7003,266.414,2.338e-05,8.4e-07,0.0,0 STARLINK-3606,1 51807U 22017AR  23344.52092089  .00000084  00000-0  23380-4 0  9996,2 51807  53.2178  61.0026 0001318  93.7003 266.4140 15.08837405100295,6917.888,95.438,540.665,538.842,0.0
51807.0,STARLINK-3606,PAYLOAD,2023-12-11 12:20:54,15.08839451,0.0001319,53.2176,56.5423,86.9737,273.1406,5.1742e-05,5.36e-06,0.0,0 STARLINK-3606,1 51807U 22017AR  23345.51452096  .00000536  00000-0  51742-4 0  9999,2 51807  53.2176  56.5423 0001319  86.9737 273.1406 15.08839451100442,6917.882,95.438,540.66,538.835,0.0
51807.0,STARLINK-3606,PAYLOAD,2023-12-12 10:36:18,15.08837085,0.0001542,53.2183,52.3801,74.1309,285.9853,4.469e-05,4.23e-06,0.0,0 STARLINK-3606,1 51807U 22017AR  23346.44188494  .00000423  00000-0  44690-4 0  9999,2 51807  53.2183  52.3801 0001542  74.1309 285.9853 15.08837085100589,6917.889,95.438,540.821,538.688,0.0
51807.0,STARLINK-3606,PAYLOAD,2023-12-12 12:11:41,15.08838054,0.0001584,53.2183,52.0828,70.5904,289.5259,5.0998e-05,5.24e-06,0.0,0 STARLINK-3606,1 51807U 22017AR  23346.50812442  .00000524  00000-0  50998-4 0  9993,2 51807  53.2183  52.0828 0001584  70.5904 289.5259 15.08838054100590,6917.886,95.438,540.847,538.656,0.0
51807.0,STARLINK-3606,PAYLOAD,2023-12-13 12:02:28,15.08846626,0.0001593,53.2183,47.6241,72.195,287.9216,8.2268e-05,1.022e-05,0.0,0 STARLINK-3606,1 51807U 22017AR  23347.50171755  .00001022  00000-0  82268-4 0  9998,2 51807  53.2183  47.6241 0001593  72.1950 287.9216 15.08846626100744,6917.86,95.437,540.827,538.623,0.0
51807.0,STARLINK-3606,PAYLOAD,2023-12-14 10:17:52,15.08830469,0.0001714,53.2183,43.4627,68.4654,291.652,0.00013382,1.842e-05,0.0,0 STARLINK-3606,1 51807U 22017AR  23348.42908447  .00001842  00000-0  13382-3 0  9996,2 51807  53.2183  43.4627 0001714  68.4654 291.6520 15.08830469100883,6917.91,95.438,540.96,538.589,0.0
51807.0,STARLINK-3606,PAYLOAD,2023-12-15 10:08:39,15.08840095,0.0001442,53.2175,38.9974,89.776,270.3397,-8.1798e-06,-4.18e-06,0.0,0 STARLINK-3606,1 51807U 22017AR  23349.42268147 -.00000418  00000-0 -81798-5 0  9991,2 51807  53.2175  38.9974 0001442  89.7760 270.3397 15.08840095101030,6917.88,95.438,540.743,538.748,0.0
51807.0,STARLINK-3606,PAYLOAD,2023-12-16 09:59:27,15.08832211,0.0001696,53.2189,34.5395,112.5026,247.6146,6.337e-07,-2.78e-06,0.0,0 STARLINK-3606,1 51807U 22017AR  23350.41628830 -.00000278  00000-0  63370-6 0  9991,2 51807  53.2189  34.5395 0001696 112.5026 247.6146 15.08832211101181,6917.904,95.438,540.942,538.596,0.0
51807.0,STARLINK-3606,PAYLOAD,2023-12-17 09:50:14,15.08837344,0.0001627,53.219,30.077,109.3934,250.7235,6.9438e-05,8.17e-06,0.0,0 STARLINK-3606,1 51807U 22017AR  23351.40988650  .00000817  00000-0  69438-4 0  9997,2 51807  53.2190  30.0770 0001627 109.3934 250.7235 15.08837344101330,6917.889,95.438,540.879,538.628,0.0
51807.0,STARLINK-3606,PAYLOAD,2023-12-18 08:05:37,15.08843991,0.0001493,53.2186,25.9132,100.8514,259.2646,0.00012755,1.743e-05,0.0,0 STARLINK-3606,1 51807U 22017AR  23352.33724193  .00001743  00000-0  12755-3 0  9998,2 51807  53.2186  25.9132 0001493 100.8514 259.2646 15.08843991101471,6917.868,95.437,540.766,538.7,0.0
51807.0,STARLINK-3606,PAYLOAD,2023-12-19 09:31:49,15.08834319,0.0001351,53.2179,21.1545,107.7315,252.3824,-5.6841e-05,-1.192e-05,0.0,0 STARLINK-3606,1 51807U 22017AR  23353.39709641 -.00001192  00000-0 -56841-4 0  9991,2 51807  53.2179  21.1545 0001351 107.7315 252.3824 15.08834319101631,6917.898,95.438,540.697,538.828,0.0
51807.0,STARLINK-3606,PAYLOAD,2023-12-20 09:22:35,15.08850163,0.0001587,53.2187,16.696,103.9108,256.2061,-2.2109e-05,-6.4e-06,0.0,0 STARLINK-3606,1 51807U 22017AR  23354.39068892 -.00000640  00000-0 -22109-4 0  9995,2 51807  53.2187  16.6960 0001587 103.9108 256.2061 15.08850163101786,6917.849,95.437,540.812,538.616,0.0
